[{"OBJECT_NAME":"STARLINK-4428","OBJECT_ID":"2022-105AA","EPOCH":"2026-03-09T15:55:26.931360","MEAN_MOTION":15.01253245,"ECCENTRICITY":0.00025835,"INCLINATION":97.6017,"RA_OF_ASC_NODE":310.2043,"ARG_OF_PERICENTER":56.708,"MEAN_ANOMALY":303.4392,"EPHEMERIS_TYPE":0,"CLASSIFICATION_TYPE":"U","NORAD_CAT_ID":53672,"ELEMENT_SET_NO":999,"REV_AT_EPOCH":19323,"BSTAR":-0.0001200629,"MEAN_MOTION_DOT":-1.6e-5,"MEAN_MOTION_DDOT":0},{"OBJECT_NAME":"ICEYE-X43","OBJECT_ID":"2024-149BZ","EPOCH":"2026-03-09T22:37:06.906720","MEAN_MOTION":14.99337202,"ECCENTRICITY":0.00024583,"INCLINATION":97.6823,"RA_OF_ASC_NODE":147.2527,"ARG_OF_PERICENTER":59.9226,"MEAN_ANOMALY":300.2241,"EPHEMERIS_TYPE":0,"CLASSIFICATION_TYPE":"U","NORAD_CAT_ID":60539,"ELEMENT_SET_NO":999,"REV_AT_EPOCH":8524,"BSTAR":0.00036668005,"MEAN_MOTION_DOT":4.424e-5,"MEAN_MOTION_DDOT":0}]
